TANAGER-1               
1 60507U 24149AR  26190.70477620  .00000245  00000+0  72329-5 0  9997
2 60507  97.2281 284.8679 0002763 147.2432 212.8988 15.43935842106519
